{"type":"FeatureCollection","features":[{"type":"Feature","geometry":{"type":"MultiPolygon","coordinates":[[[[-122.61229,37.81522],[-122.58817,37.78936],[-122.58473,37.77916],[-122.58128,37.7602],[-122.57519,37.70672],[-122.43678,37.70792],[-122.42386,37.7082],[-122.42334,37.70928],[-122.41922,37.70812],[-122.28178,37.70823],[-122.34668,37.81103],[-122.37378,37.88373],[-122.43228,37.92982],[-122.41867,37.8525],[-122.47283,37.83189],[-122.47449,37.83364],[-122.47781,37.83322],[-122.47809,37.82535],[-122.49122,37.8266],[-122.49584,37.82214],[-122.49962,37.82188],[-122.4991,37.81988],[-122.51129,37.8247],[-122.5207,37.82528],[-122.52383,37.82455],[-122.52553,37.82112],[-122.52885,37.82011],[-122.52802,37.8151],[-122.61229,37.81522]]],[[[-123.17383,37.77573],[-123.17293,37.7636],[-123.16998,37.75593],[-123.16275,37.74353],[-123.15676,37.73784],[-123.1326,37.71939],[-123.12611,37.71673],[-123.10492,37.71265],[-123.09285,37.71369],[-123.08606,37.70075],[-123.07492,37.69007],[-123.06859,37.67304],[-123.05358,37.65865],[-123.0407,37.65033],[-123.01161,37.64151],[-123.00111,37.64177],[-123.00111,37.63983],[-122.98675,37.64178],[-122.97301,37.64658],[-122.96301,37.65198],[-122.94907,37.66338],[-122.94136,37.67658],[-122.93571,37.69762],[-122.93586,37.70246],[-122.94229,37.72106],[-122.94998,37.73219],[-122.9641,37.74428],[-122.97326,37.74865],[-122.98143,37.75892],[-122.99754,37.77078],[-123.01059,37.77493],[-123.03384,37.77838],[-123.03873,37.78888],[-123.04882,37.79982],[-123.07049,37.81383],[-123.09526,37.82188],[-123.11829,37.82306],[-123.13227,37.81968],[-123.14721,37.81195],[-123.16601,37.79689],[-123.16911,37.79237],[-123.17383,37.77573]]]]},"properties":{"GEOID":"0667000","BASENAME":"San Francisco","NAME":"San Francisco city","STATE":"06","source":"US Census TIGERweb 2026 BAS current","simplification":"maxAllowableOffset=0.001deg"}}]}