{"type":"FeatureCollection","features":[{"type":"Feature","geometry":{"type":"MultiPolygon","coordinates":[[[[-119.99987,41.18397],[-119.99923,41.99494],[-124.32883,41.99833],[-124.28858,41.96956],[-124.28503,41.85949],[-124.40124,41.88559],[-124.43891,41.8245],[-124.21171,41.68119],[-124.13323,41.43231],[-124.13997,41.38182],[-124.20651,41.38472],[-124.24242,41.3433],[-124.22003,41.30299],[-124.1607,41.28929],[-124.19553,41.18458],[-124.25247,41.13407],[-124.18269,41.00131],[-124.19762,40.95053],[-124.40337,40.61317],[-124.48054,40.42849],[-124.42806,40.36178],[-124.41103,40.22527],[-124.15376,40.06354],[-124.13325,39.99987],[-123.90097,39.78047],[-123.83465,39.54919],[-123.87513,39.49418],[-123.89494,39.34835],[-123.76197,39.04109],[-123.80986,38.96122],[-123.78468,38.89373],[-123.51058,38.68089],[-123.36093,38.5102],[-123.16476,38.38834],[-123.13452,38.29626],[-123.01482,38.14913],[-123.08513,38.00843],[-123.06797,37.95867],[-122.95322,37.94109],[-122.88929,37.97411],[-122.76677,37.8658],[-122.58817,37.78936],[-122.57496,37.49994],[-122.46701,37.34989],[-122.46412,37.17785],[-122.37609,37.06565],[-122.0764,36.9102],[-122.00112,36.6477],[-122.04405,36.57825],[-121.95767,36.28512],[-121.72781,36.12901],[-121.63182,35.97894],[-121.56146,35.94382],[-121.50105,35.84274],[-121.39346,35.7634],[-121.32351,35.62497],[-121.20156,35.58369],[-121.04164,35.41999],[-120.93329,35.39275],[-120.96125,35.24997],[-120.91779,35.18738],[-120.80041,35.11658],[-120.68961,35.09883],[-120.73438,34.9015],[-120.67328,34.83862],[-120.70209,34.74833],[-120.66469,34.69634],[-120.71333,34.57496],[-120.68221,34.52533],[-120.55944,34.48847],[-120.52365,34.4195],[-120.45602,34.39148],[-120.14728,34.42292],[-119.71613,34.33611],[-119.58479,34.36166],[-119.33489,34.23687],[-119.21799,34.06249],[-119.15896,34.04025],[-118.81475,33.94721],[-118.55736,33.98767],[-118.44725,33.84876],[-118.48448,33.80315],[-118.46696,33.72552],[-118.31913,33.65955],[-118.1259,33.69715],[-117.46787,33.21249],[-117.37587,33.07522],[-117.32328,32.90306],[-117.342,32.84035],[-117.30924,32.6564],[-117.2233,32.62124],[-117.20505,32.52951],[-114.7195,32.71874],[-114.70158,32.74563],[-114.6174,32.72826],[-114.52686,32.75709],[-114.52963,32.79548],[-114.46897,32.84516],[-114.4686,32.97165],[-114.52013,33.02998],[-114.66506,33.03391],[-114.70649,33.08816],[-114.67209,33.2585],[-114.73122,33.30243],[-114.69804,33.35244],[-114.72528,33.40505],[-114.6433,33.41675],[-114.52422,33.55307],[-114.53152,33.67511],[-114.4942,33.70792],[-114.52805,33.81496],[-114.50792,33.90381],[-114.53568,33.93355],[-114.43827,34.02261],[-114.43418,34.08738],[-114.13121,34.26273],[-114.17691,34.34931],[-114.3867,34.45791],[-114.38084,34.52972],[-114.43681,34.59607],[-114.47048,34.71137],[-114.63438,34.87289],[-114.63349,35.00186],[-117.50012,37.22038],[-120.00101,38.99957],[-119.99987,41.18397]]],[[[-123.17383,37.77573],[-123.0407,37.65033],[-122.98675,37.64178],[-122.94136,37.67658],[-122.94998,37.73219],[-123.07049,37.81383],[-123.13227,37.81968],[-123.17383,37.77573]]],[[[-119.11717,33.5056],[-119.07189,33.4138],[-118.98873,33.42344],[-118.96375,33.46683],[-119.00093,33.5359],[-119.11717,33.5056]]],[[[-118.6682,33.48594],[-118.48669,33.27691],[-118.32799,33.24808],[-118.24908,33.28414],[-118.25771,33.36413],[-118.35939,33.46492],[-118.52938,33.53118],[-118.62592,33.52898],[-118.6682,33.48594]]],[[[-118.6782,33.03973],[-118.55319,32.8288],[-118.46471,32.76018],[-118.40832,32.75191],[-118.29584,32.79826],[-118.29725,32.84509],[-118.5421,33.07379],[-118.63264,33.08454],[-118.6782,33.03973]]],[[[-119.49229,33.98321],[-119.38046,33.95361],[-119.31161,33.98002],[-119.2944,34.0275],[-119.34246,34.06896],[-119.46784,34.06293],[-119.55743,34.1086],[-119.65493,34.07122],[-119.75098,34.11258],[-119.9288,34.1299],[-119.99164,34.06487],[-120.04515,34.09061],[-120.25285,34.05803],[-120.35516,34.14502],[-120.41879,34.16057],[-120.47165,34.1341],[-120.53812,34.15034],[-120.58226,34.10752],[-120.48815,33.98428],[-120.29897,33.96846],[-120.22113,33.88419],[-120.12596,33.84235],[-119.93919,33.89864],[-119.90476,33.93967],[-119.83442,33.90079],[-119.70749,33.91039],[-119.49229,33.98321]]],[[[-119.63607,33.28071],[-119.60528,33.20692],[-119.512,33.16776],[-119.39454,33.18084],[-119.3607,33.22145],[-119.37973,33.26763],[-119.51914,33.3337],[-119.59922,33.32328],[-119.63607,33.28071]]]]},"properties":{"GEOID":"06","NAME":"California","STUSAB":"CA","source":"US Census TIGERweb 2026 BAS current","simplification":"maxAllowableOffset=0.02deg"}}]}