{"type":"FeatureCollection","features":[{"type":"Feature","id":"relation/396499","properties":{"admin_level":"6","alt_name":"Alameda","attribution":"CASIL cnty24k09_1_poly.shp","border_type":"county","boundary":"administrative","county:abbrev":"ALA","county:ansi":"001","county:name":"Alameda","name":"Alameda County","name:ar":"مقاطعة ألاميدا (كاليفورنيا)","name:az":"Alamida qraflığı","name:bar":"Alameda County","name:be-tarask":"Аламіда","name:bg":"Аламида","name:bpy":"আলামেডা কাউন্টি, ক্যালিফোর্নিয়া","name:ca":"Comtat d'Alameda","name:ceb":"Alameda County","name:cs":"Alameda County","name:da":"Alameda County","name:de":"Alameda County","name:en":"Alameda County","name:eo":"Kantono Alameda","name:es":"Condado de Alameda","name:et":"Alameda maakond","name:eu":"Alameda konderria","name:fa":"شهرستان آلامدا، کالیفرنیا","name:fi":"Alamedan piirikunta","name:fr":"Comté d'Alameda","name:ga":"Contae Alameda","name:gl":"Condado de Alameda","name:hu":"Alameda megye","name:hy":"Ալամեդա շրջան","name:id":"Alameda County","name:it":"Contea di Alameda","name:ja":"アラメダ郡","name:ko":"앨러미다 군","name:la":"Alameda Comitatus","name:li":"Alameda County","name:lt":"Alamedos apygarda","name:ml":"അൽമേഡ കൌണ്ടി, കാലിഫോർണിയ","name:nan":"Alameda Kūn","name:nds":"Alameda County","name:nl":"Alameda County","name:no":"Alameda County","name:nv":"Chéchʼiltah Hatsoh Áłtsʼíísí Bił Hahoodzo","name:oc":"Comtat d'Alameda","name:pam":"Alameda County","name:pl":"Hrabstwo Alameda","name:pnb":"المیدا کاؤنٹی","name:pt":"Condado de Alameda","name:ro":"Comitatul Alameda","name:ru":"Аламида","name:sh":"Alameda County","name:sq":"Alameda County","name:sr":"Округ Аламида","name:sv":"Alameda County","name:tl":"Alameda County","name:tr":"Alameda İlçesi","name:uk":"Аламіда","name:ur":"الامیدا کاؤنٹی، کیلیفورنیا","name:vi":"Quận Alameda","name:war":"Condado han Alameda","name:yue":"阿拉米達縣","name:zh":"阿拉梅达县;阿拉米達縣;阿拉米達郡","name:zh-Hans":"阿拉梅达县","name:zh-Hant":"阿拉米達縣;阿拉米達郡","name:zh-Hant-CN":"阿拉梅達縣","name:zh-Hant-HK":"阿拉米達縣","name:zh-Hant-TW":"阿拉米達郡","nist:fips_code":"6001","nist:state_fips":"6","population":"1638215","source:population":"https://www.census.gov/programs-surveys/popest.html","type":"boundary","website":"https://www.acgov.org/","wikidata":"Q107146","wikipedia":"en:Alameda County, California","id":"relation/396499"},"geometry":{"type":"Polygon","coordinates":[[[-122.2468885,37.8854257],[-122.2561997,37.897521],[-122.2697849,37.9044123],[-122.2841575,37.8993006],[-122.2996351,37.8981042],[-122.3182022,37.8960373],[-122.3381682,37.8915092],[-122.3622859,37.886162],[-122.3686918,37.8698665],[-122.3622273,37.8526702],[-122.3558935,37.8356877],[-122.3473073,37.8126781],[-122.3337551,37.7906314],[-122.3201327,37.7691528],[-122.3036158,37.7432194],[-122.2814578,37.7082002],[-122.2516345,37.6717258],[-122.2219325,37.6354722],[-122.1984151,37.6063824],[-122.1538117,37.5516134],[-122.1384489,37.5327485],[-122.1260316,37.517559],[-122.1097638,37.497572],[-122.0817623,37.4779231],[-122.0656398,37.4676742],[-122.0525916,37.4594915],[-122.0379646,37.4642627],[-122.0227203,37.4651458],[-121.9990001,37.4668885],[-121.9828337,37.4612872],[-121.9675673,37.4622531],[-121.9522684,37.4615594],[-121.9369356,37.4622156],[-121.9170943,37.458218],[-121.9032845,37.464706],[-121.8891352,37.4703067],[-121.8749216,37.476032],[-121.8606685,37.4846016],[-121.741397,37.4838182],[-121.7183884,37.483702],[-121.7003322,37.483563],[-121.6821889,37.4834676],[-121.5530745,37.4823767],[-121.5280676,37.482278],[-121.4719331,37.4817949],[-121.4781878,37.496149],[-121.492459,37.5023032],[-121.5000291,37.5160002],[-121.5121477,37.5251846],[-121.5272698,37.5271973],[-121.5421662,37.5304874],[-121.5537467,37.5404788],[-121.5567678,37.5587354],[-121.556838,37.575383],[-121.5569424,37.59277],[-121.5570465,37.6203663],[-121.5572013,37.6360888],[-121.5570826,37.6789834],[-121.5570655,37.7223611],[-121.5572446,37.7468139],[-121.5572579,37.7732529],[-121.5571189,37.7947031],[-121.5569106,37.8112812],[-121.5771542,37.8113767],[-121.6260616,37.7995812],[-121.6417044,37.7957611],[-121.672538,37.7881907],[-121.7316191,37.7738156],[-121.7510643,37.7690934],[-121.8003361,37.7572899],[-121.8233504,37.7517273],[-121.8415903,37.74732],[-121.859557,37.7429579],[-121.8748436,37.739236],[-121.8914956,37.7351908],[-121.9100132,37.7306921],[-121.9377186,37.7239349],[-121.9550914,37.7197037],[-121.9716954,37.7286351],[-121.9867829,37.7319677],[-122.0116274,37.747566],[-122.0010715,37.7611426],[-122.0085547,37.7747276],[-122.0213501,37.7837642],[-122.0362248,37.7915284],[-122.0615253,37.798947],[-122.097238,37.8016105],[-122.1260757,37.8037211],[-122.147812,37.8133464],[-122.1664673,37.8129901],[-122.1810617,37.8193293],[-122.1843027,37.8354361],[-122.1992421,37.8467291],[-122.2199656,37.8648014],[-122.2294352,37.8811495],[-122.2468885,37.8854257]]]}}]}