{"type":"FeatureCollection","features":[{"type":"Feature","id":"relation/396462","properties":{"admin_level":"6","alt_name":"Contra Costa","attribution":"CASIL cnty24k09_1_poly.shp","border_type":"county","boundary":"administrative","county:abbrev":"CON","county:ansi":"013","county:name":"Contra Costa","name":"Contra Costa County","nist:fips_code":"6013","nist:state_fips":"6","population":"1126745","source:population":"https://www.census.gov/programs-surveys/popest.html","type":"boundary","website":"https://www.contracosta.ca.gov/","wikidata":"Q108058","wikipedia":"en:Contra Costa County, California","id":"relation/396462"},"geometry":{"type":"Polygon","coordinates":[[[-121.9280999,38.0470831],[-121.9438149,38.0519845],[-121.9593184,38.0554575],[-121.9763332,38.0555259],[-121.9919064,38.0569494],[-122.0068552,38.0587982],[-122.0214384,38.0615794],[-122.0360398,38.0646158],[-122.051179,38.0649555],[-122.0666652,38.0606996],[-122.0801033,38.0533571],[-122.0943052,38.0490604],[-122.1084543,38.0442164],[-122.1222393,38.0378133],[-122.1381081,38.0328975],[-122.1546362,38.0327609],[-122.1704802,38.0407342],[-122.1810081,38.0522196],[-122.1954673,38.0568342],[-122.2102286,38.0604247],[-122.2250552,38.0609608],[-122.2423995,38.0638184],[-122.2645876,38.0593812],[-122.3524581,38.0695272],[-122.374009,38.0464463],[-122.3907403,38.0285668],[-122.405424,38.0126825],[-122.4172471,37.9999212],[-122.4296608,37.986747],[-122.4413618,37.9741584],[-122.441083,37.958062],[-122.436183,37.940943],[-122.4264924,37.9251798],[-122.3780949,37.8869901],[-122.3622859,37.886162],[-122.3381682,37.8915092],[-122.3224337,37.8950889],[-122.3056475,37.8981327],[-122.2906489,37.8977137],[-122.2769737,37.9033636],[-122.2620881,37.9016021],[-122.2498923,37.8929827],[-122.2294352,37.8811495],[-122.2176195,37.8719782],[-122.2109766,37.8555423],[-122.195274,37.843587],[-122.1838136,37.8342214],[-122.1810617,37.8193293],[-122.16711,37.8132381],[-122.152421,37.8151899],[-122.140585,37.8048101],[-122.097238,37.8016105],[-122.0615253,37.798947],[-122.0452746,37.797791],[-122.0323224,37.7888774],[-122.0189717,37.7821491],[-122.0044837,37.7705357],[-122.0110032,37.7550891],[-121.9987799,37.7375074],[-121.9797166,37.7297369],[-121.9600804,37.7184794],[-121.9438029,37.7224737],[-121.9246149,37.7271427],[-121.9100132,37.7306921],[-121.8914956,37.7351908],[-121.8748436,37.739236],[-121.859557,37.7429579],[-121.8421086,37.7471948],[-121.8233504,37.7517273],[-121.8003361,37.7572899],[-121.7510644,37.7690506],[-121.7316191,37.7738156],[-121.672538,37.7881907],[-121.6417044,37.7957611],[-121.6260616,37.7995812],[-121.5865991,37.8091111],[-121.5651401,37.8143289],[-121.5515985,37.8203613],[-121.5432999,37.8329304],[-121.5365295,37.8465586],[-121.5489952,37.8562278],[-121.5653839,37.8572173],[-121.5771728,37.8686417],[-121.573978,37.8833112],[-121.5663048,37.8961732],[-121.5625205,37.9109297],[-121.5587013,37.9259469],[-121.56101,37.9408364],[-121.5660277,37.9548532],[-121.5732675,37.9680045],[-121.579709,37.981389],[-121.5782683,37.9969266],[-121.5743795,38.0116143],[-121.5595526,38.0154259],[-121.5636852,38.0299814],[-121.5729362,38.0426097],[-121.58221,38.0547058],[-121.5790673,38.0696322],[-121.5731126,38.0831908],[-121.5781304,38.097513],[-121.592922,38.1009355],[-121.6075404,38.1045118],[-121.6222281,38.1016976],[-121.6317245,38.0894847],[-121.6489319,38.0904668],[-121.6647891,38.0958707],[-121.6788606,38.0895467],[-121.6795721,38.0736079],[-121.6827145,38.0591381],[-121.6945549,38.0490506],[-121.7073847,38.0398152],[-121.7225156,38.0346771],[-121.7414644,38.0260766],[-121.7582357,38.0240516],[-121.7778367,38.0189579],[-121.7927684,38.0188284],[-121.8077252,38.020381],[-121.8239543,38.0255743],[-121.8353735,38.0358141],[-121.8415721,38.0493803],[-121.8497665,38.0627134],[-121.8645937,38.0612129],[-121.8755065,38.0505164],[-121.8945169,38.0458463],[-121.9137869,38.0452007],[-121.9280999,38.0470831]]]}}]}