{"type":"FeatureCollection","features":[{"type":"Feature","id":"relation/396461","properties":{"admin_level":"6","alt_name":"Marin","attribution":"CASIL cnty24k09_1_poly.shp","border_type":"county","boundary":"administrative","county:abbrev":"MRN","county:ansi":"041","county:name":"Marin","name":"Marin County","nist:fips_code":"6041","nist:state_fips":"6","population":"261221","source:population":"https://www.census.gov/programs-surveys/popest.html","type":"boundary","website":"https://www.marincounty.gov/","wikidata":"Q108117","wikipedia":"en:Marin County, California","id":"relation/396461"},"geometry":{"type":"Polygon","coordinates":[[[-122.374009,38.0464463],[-122.3524581,38.0695272],[-122.3760936,38.0763939],[-122.3952516,38.0819784],[-122.4156175,38.0879488],[-122.4586569,38.1005207],[-122.4903593,38.1097385],[-122.5044577,38.1144764],[-122.5114716,38.125997],[-122.5182783,38.1391204],[-122.5297199,38.1463319],[-122.5411441,38.1548761],[-122.554235,38.1585543],[-122.5630377,38.1691006],[-122.5652081,38.1824878],[-122.5783339,38.1871052],[-122.5919802,38.1866129],[-122.6040812,38.1807062],[-122.6177795,38.1824282],[-122.630818,38.1788335],[-122.6443432,38.1810385],[-122.6570171,38.1860828],[-122.6699167,38.1899278],[-122.6831985,38.1917851],[-122.6962549,38.1952581],[-122.7095015,38.197288],[-122.7198143,38.2060104],[-122.7399541,38.2070033],[-122.7511004,38.2146477],[-122.7700073,38.2274618],[-122.793783,38.243674],[-122.8208257,38.2620102],[-122.8450977,38.2783622],[-122.876106,38.2993623],[-122.8966969,38.3133518],[-122.9100163,38.3149708],[-122.9218544,38.3084058],[-122.935179,38.3095725],[-122.9486611,38.3115753],[-122.9616653,38.3167041],[-122.9740267,38.3114535],[-122.9872566,38.3081708],[-122.9971007,38.2988483],[-123.058838,38.2953232],[-123.064541,38.2822398],[-123.058361,38.2700604],[-123.0564329,38.2559039],[-123.0592882,38.2396182],[-123.0565134,38.2249971],[-123.048921,38.211466],[-123.040393,38.198362],[-123.034803,38.186018],[-123.030483,38.172458],[-123.02306,38.158172],[-123.023699,38.124923],[-123.063797,38.036487],[-123.074701,38.027199],[-123.082947,38.015333],[-123.085661,37.999928],[-123.08388,37.983366],[-123.074188,37.964887],[-123.059028,37.952841],[-123.041121,37.945465],[-123.022507,37.942065],[-123.001109,37.941358],[-122.984735,37.940536],[-122.968073,37.940267],[-122.953224,37.941093],[-122.937969,37.944443],[-122.91917,37.954835],[-122.909236,37.964644],[-122.902284,37.977386],[-122.889291,37.974109],[-122.876104,37.966342],[-122.865133,37.957881],[-122.854574,37.947634],[-122.84608,37.931601],[-122.838896,37.918914],[-122.825371,37.907093],[-122.793105,37.895005],[-122.78229,37.880335],[-122.766771,37.865804],[-122.752466,37.857699],[-122.730666,37.85006],[-122.715845,37.845625],[-122.691987,37.845006],[-122.678018,37.847891],[-122.65561,37.835821],[-122.643163,37.830451],[-122.629583,37.824367],[-122.6162066,37.8153638],[-122.5301101,37.8153729],[-122.5210598,37.825206],[-122.507707,37.8237893],[-122.4943374,37.8233727],[-122.4810547,37.8259133],[-122.453983,37.839027],[-122.418742,37.8525993],[-122.4321472,37.9296678],[-122.439783,37.953303],[-122.441484,37.966805],[-122.4296608,37.986747],[-122.4173339,37.9999216],[-122.405424,38.0126825],[-122.3907403,38.0285668],[-122.374009,38.0464463]]]}}]}