{"type":"FeatureCollection","features":[{"type":"Feature","id":"relation/396498","properties":{"admin_level":"6","alt_name":"San Mateo","attribution":"CASIL cnty24k09_1_poly.shp","border_type":"county","boundary":"administrative","county:abbrev":"SMT","name":"San Mateo County","name:zh":"圣马刁县","name:zh-Hant-HK":"聖馬刁縣","name:zh-Hant-TW":"聖馬刁郡","nist:fips_code":"06081","population":"765135","source":"San Mateo County GIS Open Data","source:population":"https://www.census.gov/programs-surveys/popest.html","type":"boundary","website":"https://www.smcgov.org/","wikidata":"Q108101","wikipedia":"en:San Mateo County, California","id":"relation/396498"},"geometry":{"type":"Polygon","coordinates":[[[-122.502254,37.708254],[-122.5754041,37.7082697],[-122.5703627,37.6642234],[-122.567497,37.639185],[-122.572666,37.627521],[-122.57956,37.611484],[-122.586454,37.592529],[-122.588177,37.579408],[-122.586454,37.561913],[-122.5793913,37.5447011],[-122.5804488,37.5244479],[-122.5790755,37.511377],[-122.574055,37.498508],[-122.570958,37.484472],[-122.561761,37.4723354],[-122.546996,37.457857],[-122.527596,37.446096],[-122.514592,37.442518],[-122.508415,37.427102],[-122.503543,37.411902],[-122.487454,37.388328],[-122.467005,37.349889],[-122.476094,37.294152],[-122.481774,37.271088],[-122.484046,37.249944],[-122.483142,37.23474],[-122.479071,37.221682],[-122.471583,37.207305],[-122.468572,37.19348],[-122.464117,37.177848],[-122.455426,37.166602],[-122.445632,37.150037],[-122.428467,37.137755],[-122.417743,37.129156],[-122.409278,37.117749],[-122.396916,37.109888],[-122.395358,37.093741],[-122.389421,37.080974],[-122.376086,37.065648],[-122.360003,37.058393],[-122.3473044,37.0565348],[-122.3354939,37.0513323],[-122.3220529,37.0479139],[-122.2934051,37.1068597],[-122.2932697,37.119579],[-122.3009134,37.1312127],[-122.3114687,37.1472192],[-122.3137663,37.1619193],[-122.316343,37.178679],[-122.2966518,37.1868841],[-122.2833936,37.1876157],[-122.2695003,37.1896505],[-122.2554973,37.1897696],[-122.2425355,37.1898828],[-122.2425358,37.2111517],[-122.2165912,37.214955],[-122.199624,37.2150595],[-122.1818018,37.215077],[-122.1641985,37.2151327],[-122.152797,37.2205796],[-122.1517275,37.2339584],[-122.1526516,37.2484352],[-122.1527699,37.2622445],[-122.1528015,37.279312],[-122.1559119,37.2914761],[-122.1638705,37.3011773],[-122.1705347,37.3117579],[-122.1829859,37.3097679],[-122.1928996,37.3182502],[-122.1820609,37.3268467],[-122.1856986,37.3388056],[-122.1958402,37.3482055],[-122.2021278,37.3592662],[-122.2008929,37.3717335],[-122.193363,37.3820689],[-122.1899861,37.3945305],[-122.1933624,37.4065609],[-122.1901799,37.4187345],[-122.190534,37.4312442],[-122.1810013,37.4393456],[-122.1709364,37.4469452],[-122.1606142,37.4540137],[-122.1484832,37.4572204],[-122.1362758,37.4541004],[-122.1238513,37.4528698],[-122.1186727,37.4645371],[-122.0965353,37.4653281],[-122.0817623,37.4779231],[-122.1097638,37.497572],[-122.1260316,37.517559],[-122.1384489,37.5327485],[-122.1503563,37.5474556],[-122.1984151,37.6063824],[-122.217547,37.6301063],[-122.2516345,37.6717258],[-122.2814578,37.7082002],[-122.3760831,37.7082519],[-122.3911265,37.7082459],[-122.4051391,37.708248],[-122.4249796,37.7082527],[-122.4708452,37.7082471],[-122.4865167,37.7082591],[-122.502254,37.708254]]]}}]}