{"type":"FeatureCollection","features":[{"type":"Feature","id":"relation/396501","properties":{"admin_level":"6","alt_name":"Santa Clara","attribution":"CASIL cnty24k09_1_poly.shp","border_type":"county","boundary":"administrative","county:abbrev":"SCL","county:ansi":"085","county:name":"Santa Clara","name":"Santa Clara County","name:ar":"مقاطعة سانتا كلارا","name:el":"Κομητεία Σάντα Κλάρα","name:zh-Hans":"圣克拉拉县","name:zh-Hans-CN":"圣克拉拉县","name:zh-Hant-CN":"聖克拉拉縣","name:zh-Hant-HK":"聖克拉拉縣","name:zh-Hant-TW":"聖塔克拉拉郡","nist:fips_code":"6085","nist:state_fips":"6","population":"1918044","source:population":"https://www.census.gov/programs-surveys/popest.html","type":"boundary","website":"https://www.santaclaracounty.gov/","wikidata":"Q110739","wikipedia":"en:Santa Clara County, California","id":"relation/396501"},"geometry":{"type":"Polygon","coordinates":[[[-121.214075,36.9598094],[-121.2301868,36.9671779],[-121.2427218,36.9792369],[-121.2399672,36.9964363],[-121.2349089,37.0134267],[-121.2470453,37.0260044],[-121.2323228,37.0356911],[-121.2244933,37.0514889],[-121.2088152,37.0591709],[-121.2196144,37.0729815],[-121.2331223,37.0840669],[-121.2296504,37.1014711],[-121.2205012,37.1162707],[-121.2257446,37.1328769],[-121.2373596,37.1460784],[-121.2487489,37.1593251],[-121.2656597,37.1636479],[-121.2774487,37.1772584],[-121.2938898,37.1713475],[-121.3113215,37.1707818],[-121.3287869,37.1683529],[-121.3445691,37.1759293],[-121.359587,37.1846965],[-121.3745179,37.1754185],[-121.3823832,37.159794],[-121.3982344,37.1525625],[-121.4095023,37.165975],[-121.4115332,37.1832129],[-121.415579,37.2003131],[-121.4218121,37.2167461],[-121.4338265,37.2294273],[-121.4469696,37.2408152],[-121.4542439,37.2565798],[-121.4547996,37.27414],[-121.4517097,37.2912493],[-121.4349037,37.2960754],[-121.4197645,37.3051279],[-121.4099032,37.3194773],[-121.4118308,37.3368375],[-121.4199559,37.3522009],[-121.4172648,37.3697807],[-121.411588,37.3862116],[-121.4275436,37.3932593],[-121.444818,37.3913677],[-121.4569541,37.4040412],[-121.4686555,37.4171046],[-121.4681003,37.4347177],[-121.4635169,37.4517487],[-121.477684,37.4631285],[-121.472754,37.4799774],[-121.5280676,37.482278],[-121.5530745,37.4823767],[-121.6821889,37.4834676],[-121.7003322,37.483563],[-121.7183884,37.483702],[-121.741397,37.4838182],[-121.8606685,37.4846016],[-121.8755684,37.4754311],[-121.8913852,37.4678944],[-121.908214,37.4632569],[-121.9246375,37.4539161],[-121.9396529,37.4626849],[-121.9577322,37.4630223],[-121.9752363,37.460422],[-121.9927262,37.46421],[-122.0199633,37.4649574],[-122.0379646,37.4642627],[-122.0593096,37.4637397],[-122.0817623,37.4779231],[-122.0965624,37.4624356],[-122.1146569,37.4652148],[-122.1274309,37.4534069],[-122.1442135,37.4582793],[-122.1610529,37.4537779],[-122.1749006,37.443182],[-122.1883362,37.4321698],[-122.1876281,37.4147413],[-122.1917969,37.3976228],[-122.1950908,37.3798821],[-122.2022695,37.3640739],[-122.1950699,37.3469801],[-122.18334,37.3337534],[-122.192708,37.3187447],[-122.176406,37.3126944],[-122.1635005,37.301034],[-122.1522787,37.2846441],[-122.1409765,37.2690696],[-122.1267185,37.2591641],[-122.1119074,37.2474768],[-122.1011757,37.2336427],[-122.0855173,37.222259],[-122.0686854,37.2149239],[-122.0525674,37.2081759],[-122.0404967,37.1956406],[-122.0306424,37.1812929],[-122.0207643,37.1670133],[-122.005362,37.158319],[-121.9924146,37.1467017],[-121.9753041,37.1418271],[-121.9605066,37.1325217],[-121.9439388,37.1271712],[-121.9265521,37.1221903],[-121.9100612,37.1131794],[-121.8934399,37.108085],[-121.8700918,37.1029894],[-121.8532147,37.0986043],[-121.8369827,37.0919553],[-121.8209112,37.0851606],[-121.8111067,37.0707599],[-121.7951286,37.0637841],[-121.778591,37.0562202],[-121.7629458,37.0484133],[-121.7483372,37.0380383],[-121.7285216,37.0228529],[-121.7173683,37.0077512],[-121.7279044,36.9932751],[-121.7099464,36.9928562],[-121.6943424,36.9847756],[-121.6880325,36.967458],[-121.6701444,36.963027],[-121.6583313,36.9494588],[-121.6398788,36.9310215],[-121.6238118,36.9376179],[-121.6088783,36.9263488],[-121.5910083,36.9265223],[-121.5824309,36.9069067],[-121.5678941,36.8969404],[-121.5574247,36.9111768],[-121.5421289,36.9195866],[-121.530184,36.9329459],[-121.5164155,36.94371],[-121.5096963,36.9598365],[-121.4885146,36.9834043],[-121.4683402,36.9775616],[-121.4526619,36.9881244],[-121.437731,36.978005],[-121.4189279,36.9598104],[-121.3949343,36.9598012],[-121.3760444,36.9596095],[-121.2510385,36.95961],[-121.2190578,36.95974],[-121.214075,36.9598094]]]}}]}