{"type":"FeatureCollection","features":[{"type":"Feature","id":"relation/396468","properties":{"admin_level":"6","alt_name":"Sonoma","attribution":"CASIL cnty24k09_1_poly.shp","border_type":"county","boundary":"administrative","county:abbrev":"SON","county:ansi":"097","county:name":"Sonoma","name":"Sonoma County","nist:fips_code":"6097","nist:state_fips":"6","population":"502146","source:population":"https://www.census.gov/programs-surveys/popest.html","type":"boundary","website":"https://sonomacounty.ca.gov/","wikidata":"Q108067","wikipedia":"en:Sonoma County, California","id":"relation/396468"},"geometry":{"type":"Polygon","coordinates":[[[-123.1360153,38.2995686],[-123.1216563,38.2809921],[-123.103441,38.262322],[-123.0575883,38.2210803],[-123.058972,38.246161],[-123.058272,38.269907],[-123.0669049,38.2918737],[-123.0037251,38.2964985],[-122.9843222,38.3082155],[-122.9630888,38.3170786],[-122.9409115,38.3112428],[-122.9181563,38.3101246],[-122.876106,38.2993623],[-122.8450977,38.2783622],[-122.8208257,38.2620102],[-122.793783,38.243674],[-122.7700073,38.2274618],[-122.7511004,38.2144945],[-122.7245718,38.2071753],[-122.7037198,38.1979585],[-122.6817406,38.190961],[-122.6594128,38.1870361],[-122.6373636,38.1800932],[-122.6149325,38.1823647],[-122.5931084,38.1887031],[-122.5708857,38.1834776],[-122.5526382,38.1695705],[-122.5381059,38.1520388],[-122.5188859,38.1397808],[-122.5090066,38.1191281],[-122.4703936,38.1039225],[-122.4156175,38.0879488],[-122.3760936,38.0763939],[-122.3524581,38.0695272],[-122.3661884,38.0911079],[-122.3788111,38.1114042],[-122.3909643,38.1308584],[-122.4030834,38.1499551],[-122.3829265,38.1608551],[-122.3694546,38.1796239],[-122.3544193,38.1964269],[-122.3595067,38.2184676],[-122.3640386,38.2406807],[-122.3822858,38.2539274],[-122.3954814,38.2722235],[-122.4023741,38.2937667],[-122.4025823,38.3167039],[-122.4143709,38.3361623],[-122.4306386,38.3521626],[-122.4512299,38.3617103],[-122.4539033,38.3841226],[-122.4690946,38.4007883],[-122.4859528,38.4161799],[-122.4864388,38.4387843],[-122.5010919,38.4559933],[-122.5183321,38.4705616],[-122.5369958,38.4840064],[-122.5427597,38.5058473],[-122.5538708,38.5259511],[-122.573247,38.5379195],[-122.5906782,38.5524958],[-122.6125191,38.5586761],[-122.6320334,38.5700135],[-122.6404712,38.5910198],[-122.6367732,38.6133173],[-122.633284,38.6356108],[-122.6239431,38.6566417],[-122.6292563,38.6786927],[-122.6417572,38.6980668],[-122.6627823,38.7063711],[-122.6853353,38.7095348],[-122.7006314,38.726193],[-122.7087566,38.7474861],[-122.7245734,38.7638493],[-122.7387668,38.7814862],[-122.7474476,38.8025292],[-122.7673442,38.8137271],[-122.785452,38.8273062],[-122.8062343,38.8362551],[-122.8400344,38.8497851],[-122.8761064,38.8503279],[-122.9145973,38.8505296],[-122.9432095,38.8505023],[-122.9700683,38.8513283],[-123.0011109,38.8512741],[-123.0252959,38.8526549],[-123.0622935,38.8522045],[-123.0812697,38.8382842],[-123.1180416,38.8393482],[-123.1360458,38.8236942],[-123.1696577,38.8089667],[-123.1994855,38.8090461],[-123.2309531,38.8090742],[-123.2649472,38.8085971],[-123.2958934,38.8072302],[-123.3235151,38.8066483],[-123.368385,38.8065028],[-123.3682375,38.7771755],[-123.3951646,38.7768673],[-123.4225344,38.7764926],[-123.4590192,38.7768918],[-123.4973523,38.7789704],[-123.5170057,38.7661613],[-123.632497,38.758119],[-123.607061,38.748565],[-123.586915,38.728075],[-123.566089,38.709021],[-123.531889,38.693421],[-123.51058,38.68089],[-123.495084,38.660662],[-123.477373,38.642226],[-123.462496,38.624913],[-123.448391,38.606292],[-123.43049,38.591672],[-123.41417,38.571522],[-123.394157,38.553942],[-123.378567,38.529598],[-123.360929,38.510202],[-123.330921,38.502421],[-123.306742,38.478681],[-123.283172,38.464959],[-123.253522,38.452705],[-123.228013,38.444228],[-123.204071,38.423903],[-123.188465,38.40286],[-123.168101,38.390436],[-123.155743,38.368396],[-123.140012,38.350605],[-123.141001,38.327454],[-123.1379769,38.3021718],[-123.1360153,38.2995686]]]}}]}